#aV2006  3 18  0  0   .00000000      96 DD+AD WGS84 FIT  NGA
## 1366 518400.00000000   900.00000000 53812  .0000000000000
+   29     1  2  3  4  5  6  7  8  9 10 11 13 14 15 16 17 18
+         19 20 21 22 23 24 25 26 27 28 29 30  0  0  0  0  0
+          0  0  0  0  0  0  0  0  0  0  0  0  0  0  0  0  0
+          0  0  0  0  0  0  0  0  0  0  0  0  0  0  0  0  0
+          0  0  0  0  0  0  0  0  0  0  0  0  0  0  0  0  0
++         0  0  0  0  0  0  0  0  0  0  0  0  0  0  0  0  0
++         0  0  0  0  0  0  0  0  0  0  0  0  0  0  0  0  0
++         0  0  0  0  0  0  0  0  0  0  0  0  0  0  0  0  0
++         0  0  0  0  0  0  0  0  0  0  0  0  0  0  0  0  0
++         0  0  0  0  0  0  0  0  0  0  0  0  0  0  0  0  0
%c cc cc ccc ccc cccc cccc cccc cccc ccccc ccccc ccccc ccccc
%c cc cc ccc ccc cccc cccc cccc cccc ccccc ccccc ccccc ccccc
%f  0.0000000  0.000000000  0.00000000000  0.000000000000000
%f  0.0000000  0.000000000  0.00000000000  0.000000000000000
%i    0    0    0    0      0      0      0      0         0
%i    0    0    0    0      0      0      0      0         0
/*      NGA, ST. LOUIS,MO.                                  
/*   EPHEMERIS COMPUTED FROM  3 DAYS OF DATA                
/* CCCCCCCCCCCCCCCCCCCCCCCCCCCCCCCCCCCCCCCCCCCCCCCCCCCCCCCCC
/* CCCCCCCCCCCCCCCCCCCCCCCCCCCCCCCCCCCCCCCCCCCCCCCCCCCCCCCCC
*  2006  3 18  5 15   .00000000                                                 
P  1  15152.191057 -21135.657684   5487.227958     42.035513                    
V  1   6014.788016  -3525.066186 -31353.604349       .020019                    
P  2  -8142.218731  13644.407206  20985.885541    -13.944255                    
V  2 -26659.772383  -6142.270410  -6449.614293       .018914                    
P  3   8974.997638 -23302.172084  -8756.896263     82.772335                    
V  3   9569.954139  -6677.600169  28397.674756       .030355                    
P  4 -18679.847725   8354.281568  17081.949669    180.010956                    
V  4 -20762.194235  -6394.242796 -19186.788383       .108094                    
P  5  13780.175756  22105.745780   5427.717909   -332.595655                    
V  5   -249.984076   7856.405785 -30113.055798       .773160                    
P  6  16521.526185   3956.614973  20623.836541    410.197281                    
V  6 -15754.906966  20505.436720   8689.396043       .284459                    
P  7  16999.893132   3006.820336  20664.840940    515.097373                    
V  7 -14929.585120  20509.544680   9314.644361       .062969                    
P  8 -24559.022566   1460.887107 -10657.193917    -59.804149                    
V  8 -12350.995541  -4914.305842  27780.813710      -.012144                    
P  9  14321.765269  14772.907127 -17490.052422     12.312174                    
V  9 -21017.751391  -1997.053535 -19218.102294       .016990                    
P 10    237.209545  24275.155876  10298.765174     80.341078                    
V 10  -6205.097263 -11997.053940  28477.944208       .006634                    
P 11 -16124.928443 -13829.527680 -16149.013546    314.256189                    
V 11  20650.748118  -1653.719814 -19032.120281       .026790                    
P 13 -16567.199906  -1921.373873  20574.976169     48.219496                    
V 13  17295.328531 -19749.584409  12095.731785       .025867                    
P 14  20596.494461 -14315.364255  -8596.905537    -17.636680                    
V 14  -5945.984863   9448.299832 -29783.457674       .007012                    
P 15  24765.669096   -504.131339 -10262.640674    582.103985                    
V 15  11574.708478   5614.901701  27739.495420       .060031                    
P 16   4689.863296 -20922.888005  15697.765492     31.727061                    
V 16   7998.924813  18232.800482  22124.649284       .020314                    
P 17 -20824.467230  13093.701631  -9921.978999     69.685084                    
V 17   6410.894649 -11151.347042 -28308.567881       .060568                    
P 18  16367.847486   9107.824082 -18847.914340   -226.287788                    
V 18   5367.585309  23467.149505  15630.562457      -.019602                    
P 19    233.638229 -18792.427702 -18649.641577    -18.522805                    
V 19  17952.823607 -15873.636550  16167.328511       .012497                    
P 20 -12660.011621 -22374.424582   6667.819928    -30.443041                    
V 20   -198.791282  -9003.627305 -30146.477136       .008083                    
P 21  26243.778728   5511.714453  -1198.890615     14.264959                    
V 21    823.516704   3191.338137  30991.257960       .031006                    
P 22  13944.734577  -6484.015428 -21501.040266     77.081217                    
V 22   7680.210724  26598.641380  -3018.657841       .035412                    
P 23  -8345.820656 -12947.961374  21529.100603    146.817581                    
V 23  18575.980292 -20349.595419  -5165.634677      -.012486                    
P 24 -25857.965093  -1893.679041   6590.693745     93.631121                    
V 24  -7140.467035  -4369.436849 -30113.523749       .029768                    
P 25  15278.617758 -11742.156327  18735.150188    -19.942790                    
V 25  22655.944760   3892.123688 -16274.949544       .219465                    
P 26  -3288.386385  20071.096716 -17116.506610    -62.500659                    
V 26 -15491.695412  14538.588302  21050.041709      -.097024                    
P 27 -26433.267263  -4101.069699    538.475356     40.306035                    
V 27    329.921760  -2619.877645  31441.580294       .017180                    
P 28 -15040.259974   2330.332338 -21508.407109     31.288676                    
V 28  -8299.337249 -26693.478690   2534.234584      -.008045                    
P 29  -7032.841855  21583.533732 -13321.572104    563.406812                    
V 29 -12776.407005  11927.319534  25860.349236       .100514                    
P 30  16499.288489  15257.531846  13971.649328      2.931990                    
V 30   4006.961394  17936.388462 -23732.683882       .580449                    
EOF
